     2.100          NAVIGATION                              RINEX VERSION / TYPE
fic2rin                                 12/14/2012 00:26:19 PGM / RUN BY / DATE
                                                            END OF HEADER
26 12 12 13 14  0  0.0 -.176385045052D-03  .135287336889D-10  .000000000000D+00
     .107000000000D+03  .176500000000D+03  .354836208924D-08  .300854830764D+01
     .896677374840D-05  .209167166613D-01  .959075987339D-05  .515366618156D+04
     .396000000000D+06  .173225998878D-06 -.255746648705D+01 -.182539224625D-06
     .981289750908D+00  .199250000000D+03  .121202415571D+01 -.734066291093D-08
     .193936649668D-09  .100000000000D+01  .171800000000D+04  .000000000000D+00
     .340000000000D+01  .000000000000D+00 -.605359673500D-08  .107000000000D+03
     .388806000000D+06  .400000000000D+01
27 12 12 13 14  0  0.0 -.205203425139D-03  .352429196937D-11  .000000000000D+00
     .590000000000D+02 -.159281250000D+03  .534629412318D-08 -.116663649909D+01
    -.825151801109D-05  .563835678622D-02  .758096575737D-05  .515361642265D+04
     .396000000000D+06  .968575477600D-07 -.544453902645D+00  .745058059692D-07
     .976159246002D+00  .237968750000D+03  .863719931505D+00 -.794104506212D-08
    -.230366738556D-09  .100000000000D+01  .171800000000D+04  .000000000000D+00
     .240000000000D+01  .630000000000D+02 -.190921127796D-07  .590000000000D+02
     .388806000000D+06  .400000000000D+01
28 12 12 13 14  0  0.0  .213584396988D-03  .363797880709D-11  .000000000000D+00
     .115000000000D+03 -.170437500000D+03  .398016578988D-08 -.126907112604D+01
    -.842846930027D-05  .185060884105D-01  .764988362789D-05  .515363889694D+04
     .396000000000D+06  .931322574615D-07 -.499182002351D+00  .495463609695D-06
     .981638820717D+00  .240187500000D+03 -.180668031441D+01 -.795425989828D-08
    -.241438628317D-09  .100000000000D+01  .171800000000D+04  .000000000000D+00
     .240000000000D+01  .000000000000D+00 -.107102096081D-07  .115000000000D+03
     .388806000000D+06  .400000000000D+01
29 12 12 13 14  0  0.0  .387016218156D-03  .397903932026D-11  .000000000000D+00
     .300000000000D+02 -.227500000000D+02  .435839583039D-08  .875544591547D+00
    -.112317502499D-05  .177999306470D-02  .116974115372D-04  .515373948669D+04
     .396000000000D+06 -.223517417908D-07  .541017900139D+00 -.912696123123D-07
     .965019708533D+00  .159656250000D+03 -.111583209132D+01 -.778175271266D-08
     .711101048784D-09  .100000000000D+01  .171800000000D+04  .000000000000D+00
     .240000000000D+01  .000000000000D+00 -.931322574615D-08  .300000000000D+02
     .388806000000D+06  .400000000000D+01
31 12 12 13 14  0  0.0  .292033422738D-03  .204636307899D-11  .000000000000D+00
     .117000000000D+03  .200937500000D+02  .427374944739D-08  .146587648730D+01
     .103935599327D-05  .808230100665D-02 -.126659870148D-05  .515378503609D+04
     .396000000000D+06  .217929482460D-06 -.157810629291D+01 -.372529029846D-08
     .980541817948D+00  .410156250000D+03 -.835371020739D+00 -.832534678411D-08
     .892894335490D-10  .100000000000D+01  .171800000000D+04  .000000000000D+00
     .340000000000D+01  .000000000000D+00 -.135041773319D-07  .117000000000D+03
     .388806000000D+06  .400000000000D+01
32 12 12 13 14  0  0.0 -.516537576914D-03 -.352429196937D-11  .000000000000D+00
     .700000000000D+02  .154062500000D+02  .459804867004D-08  .209164490954D+01
     .856816768646D-06  .117293096846D-01  .110901892185D-04  .515379298210D+04
     .396000000000D+06  .121071934700D-06  .267605054902D+01  .175088644028D-06
     .950402184272D+00  .157937500000D+03 -.435663315034D+00 -.778496713227D-08
    -.947539468822D-09  .100000000000D+01  .171800000000D+04  .000000000000D+00
     .240000000000D+01  .000000000000D+00 -.325962901115D-08  .700000000000D+02
     .388806000000D+06  .400000000000D+01
26 12 12 13 13 59 44.0 -.176385045052D-03  .135287336889D-10  .000000000000D+00
     .600000000000D+01  .176500000000D+03  .354871924697D-08  .300621397169D+01
     .896677374840D-05  .209167064168D-01  .959075987339D-05  .515366619682D+04
     .395984000000D+06  .173225998878D-06 -.255746634954D+01 -.182539224625D-06
     .981289740668D+00  .199250000000D+03  .121202463408D+01 -.734102006867D-08
     .193579491934D-09  .100000000000D+01  .171800000000D+04  .000000000000D+00
     .240000000000D+01  .000000000000D+00 -.605359673500D-08  .600000000000D+01
     .388956000000D+06  .400000000000D+01
20 12 12 13 13 59 44.0  .763316638768D-04  .125055521494D-11  .000000000000D+00
     .170000000000D+02 -.737500000000D+01  .534379401904D-08  .296062361900D-01
    -.407919287682D-06  .537876656745D-02  .979751348495D-05  .515357575035D+04
     .395984000000D+06 -.111758708954D-07  .253971085283D+01  .242143869400D-07
     .928947746014D+00  .172781250000D+03  .127506946614D+01 -.835749098019D-08
    -.856107088868D-09  .100000000000D+01  .171800000000D+04  .000000000000D+00
     .240000000000D+01  .000000000000D+00 -.791624188423D-08  .170000000000D+02
     .389136000000D+06  .400000000000D+01
32 12 12 13 13 59 44.0 -.516537111253D-03 -.352429196937D-11  .000000000000D+00
     .100000000000D+02  .154062500000D+02  .459840582777D-08  .208931146743D+01
     .856816768646D-06  .117293098010D-01  .110901892185D-04  .515379298019D+04
     .395984000000D+06  .121071934700D-06  .267605068654D+01  .175088644028D-06
     .950402194512D+00  .157937500000D+03 -.435663448160D+00 -.778532429001D-08
    -.947539468822D-09  .100000000000D+01  .171800000000D+04  .000000000000D+00
     .240000000000D+01  .000000000000D+00 -.325962901115D-08  .100000000000D+02
     .391566000000D+06  .400000000000D+01
25 12 12 13 13 59 44.0  .562374480069D-04  .216004991671D-11  .000000000000D+00
     .000000000000D+00 -.154343750000D+03  .416231623432D-08  .183073072128D+00
    -.813975930214D-05  .188424461521D-02  .669993460178D-05  .515362788010D+04
     .395984000000D+06  .186264514923D-07 -.560296996767D+00  .000000000000D+00
     .971279688601D+00  .259312500000D+03  .640372926537D+00 -.804997817105D-08
    -.216437586923D-09  .100000000000D+01  .171800000000D+04  .000000000000D+00
     .240000000000D+01  .000000000000D+00  .512227416039D-08  .000000000000D+00
     .393276000000D+06  .400000000000D+01
25 12 12 13 15 59 44.0  .562532804906D-04  .216004991671D-11  .000000000000D+00
     .100000000000D+01 -.162500000000D+03  .416945938901D-08  .123411460199D+01
    -.863336026669D-05  .188234576490D-02  .566430389881D-05  .515362322617D+04
     .403184000000D+06 -.558793544769D-08 -.560354812753D+00 -.279396772385D-07
     .971278057447D+00  .274937500000D+03  .639539209524D+00 -.804283501636D-08
    -.240009997380D-09  .100000000000D+01  .171800000000D+04  .000000000000D+00
     .240000000000D+01  .000000000000D+00  .512227416039D-08  .100000000000D+01
     .396006000000D+06  .400000000000D+01
32 12 12 13 15 59 44.0 -.516562256962D-03 -.352429196937D-11  .000000000000D+00
     .350000000000D+02  .556250000000D+01  .452911722734D-08  .313937135293D+01
     .227242708206D-06  .117280695122D-01  .112019479275D-04  .515379550362D+04
     .403184000000D+06 -.949949026108D-07  .267599418572D+01  .156462192535D-06
     .950396272620D+00  .156593750000D+03 -.435615145531D+00 -.767889128522D-08
    -.806819321549D-09  .100000000000D+01  .171800000000D+04  .000000000000D+00
     .240000000000D+01  .000000000000D+00 -.325962901115D-08  .350000000000D+02
     .396006000000D+06  .400000000000D+01
 1 12 12 13 16  0  0.0  .287318136543D-03  .204636307899D-11  .000000000000D+00
     .600000000000D+02  .109375000000D+02  .520985986872D-08  .291383396607D+01
     .594183802605D-06  .148718594573D-02  .490061938763D-05  .515369553185D+04
     .403200000000D+06 -.577419996262D-07  .154056201160D+01 -.130385160446D-07
     .959562620332D+00  .284875000000D+03  .524628483648D+00 -.822748556494D-08
     .164292557730D-09  .100000000000D+01  .171800000000D+04  .000000000000D+00
     .240000000000D+01  .000000000000D+00  .838190317154D-08  .600000000000D+02
     .396006000000D+06  .400000000000D+01
 2 12 12 13 16  0  0.0  .411529559642D-03  .102318153949D-11  .000000000000D+00
     .310000000000D+02  .102187500000D+02  .567273629224D-08 -.236287336369D+01
     .521540641785D-06  .117488030810D-01  .493042171001D-05  .515356063652D+04
     .403200000000D+06  .521540641785D-07  .152249838045D+01 -.260770320892D-06
     .938089699567D+00  .271531250000D+03 -.270851506528D+01 -.839820696189D-08
     .320013329840D-09  .100000000000D+01  .171800000000D+04  .000000000000D+00
     .240000000000D+01  .000000000000D+00 -.176951289177D-07  .310000000000D+02
     .396006000000D+06  .400000000000D+01
 3 12 12 13 16  0  0.0  .141128432006D-03  .500222085975D-11  .000000000000D+00
     .760000000000D+02 -.369375000000D+02  .481805783431D-08 -.218897979090D+01
    -.208988785744D-05  .158596866531D-01  .123064965010D-04  .515376590538D+04
     .403200000000D+06  .204890966415D-06  .355348982283D+00 -.782310962677D-07
     .933270541664D+00  .120437500000D+03  .125878498037D+01 -.775067998979D-08
     .670385067086D-09  .100000000000D+01  .171800000000D+04  .000000000000D+00
     .340000000000D+01  .000000000000D+00 -.465661287308D-08  .760000000000D+02
     .396006000000D+06  .400000000000D+01
 4 12 12 13 16  0  0.0  .740801915526D-04  .111413100967D-10  .000000000000D+00
     .250000000000D+02  .114687500000D+02  .580952770443D-08  .924410735269D+00
     .828877091408D-06  .104238848435D-01  .508129596710D-05  .515369317627D+04
     .403200000000D+06 -.987201929092D-07  .153913826315D+01  .800937414169D-07
     .937130216949D+00  .272031250000D+03  .944779073886D+00 -.869393356580D-08
     .935753263594D-10  .100000000000D+01  .171800000000D+04  .000000000000D+00
     .240000000000D+01  .000000000000D+00 -.651925802231D-08  .250000000000D+02
     .396006000000D+06  .400000000000D+01
